KUIPER-00112            
1 65150U 25171U   25361.05162309  .00006311  00000+0  85561-3 0  9994
2 65150  51.9010 116.7958 0008759 281.7148  78.2831 14.79940490 22169
KUIPER-00114            
1 65151U 25171V   25360.72607997 -.00002364  00000+0 -28096-3 0  9991
2 65151  51.8986 138.2479 0005917 215.7245 144.3322 14.79935665 21837
KUIPER-00115            
1 65152U 25171W   25359.65383181  .00002989  00000+0  42069-3 0  9995
2 65152  51.9000 135.4732 0009433 237.7696 122.2352 14.79955005 21780
KUIPER-00116            
1 65153U 25171X   25361.10036416  .00004737  00000+0  64956-3 0  9997
2 65153  51.8987 134.1193 0009679 207.7092 152.3356 14.79945822 21920
KUIPER-00118            
1 65154U 25171Y   25361.09770765  .00005308  00000+0  72431-3 0  9990
2 65154  51.9008 136.5870 0001202 187.6041 172.4904 14.79954016 21891
KUIPER-00119            
1 65155U 25171Z   25360.63840471  .00005257  00000+0  71741-3 0  9998
2 65155  51.9005 126.2010 0007974 237.2082 122.8112 14.79964173 21996
KUIPER-00120            
1 65762U 25217A   25361.02745444  .00004660  00000+0  66376-3 0  9996
2 65762  51.9003  13.1770 0003396  59.8167 300.3131 14.78360450 13993
KUIPER-00132            
1 65763U 25217B   25361.00165617  .00045476  00000+0  12082-2 0  9997
2 65763  51.8631 355.7453 0007701  62.4093 297.7675 15.37786163 14234
