<?xml version="1.0" encoding="UTF-8"?>
<ndm xmlns:xsi="http://www.w3.org/2001/XMLSchema-instance" xsi:noNamespaceSchemaLocation="https://sanaregistry.org/r/ndmxml_unqualified/ndmxml-2.0.0-master-2.0.xsd">
<omm id="CCSDS_OMM_VERS" version="2.0">
<header><CREATION_DATE/><ORIGINATOR/></header><body><segment><metadata><OBJECT_NAME>KUIPER-00112</OBJECT_NAME><OBJECT_ID>2025-171U</OBJECT_ID><CENTER_NAME>EARTH</CENTER_NAME><REF_FRAME>TEME</REF_FRAME><TIME_SYSTEM>UTC</TIME_SYSTEM><MEAN_ELEMENT_THEORY>SGP4</MEAN_ELEMENT_THEORY></metadata><data><meanElements><EPOCH>2025-12-27T01:14:20.234976</EPOCH><MEAN_MOTION>14.79940490</MEAN_MOTION><ECCENTRICITY>.0008759</ECCENTRICITY><INCLINATION>51.9010</INCLINATION><RA_OF_ASC_NODE>116.7958</RA_OF_ASC_NODE><ARG_OF_PERICENTER>281.7148</ARG_OF_PERICENTER><MEAN_ANOMALY>78.2831</MEAN_ANOMALY></meanElements><tleParameters><EPHEMERIS_TYPE>0</EPHEMERIS_TYPE><CLASSIFICATION_TYPE>U</CLASSIFICATION_TYPE><NORAD_CAT_ID>65150</NORAD_CAT_ID><ELEMENT_SET_NO>999</ELEMENT_SET_NO><REV_AT_EPOCH>2216</REV_AT_EPOCH><BSTAR>.85561E-3</BSTAR><MEAN_MOTION_DOT>.6311E-4</MEAN_MOTION_DOT><MEAN_MOTION_DDOT>0</MEAN_MOTION_DDOT></tleParameters></data></segment></body></omm>
<omm id="CCSDS_OMM_VERS" version="2.0">
<header><CREATION_DATE/><ORIGINATOR/></header><body><segment><metadata><OBJECT_NAME>KUIPER-00114</OBJECT_NAME><OBJECT_ID>2025-171V</OBJECT_ID><CENTER_NAME>EARTH</CENTER_NAME><REF_FRAME>TEME</REF_FRAME><TIME_SYSTEM>UTC</TIME_SYSTEM><MEAN_ELEMENT_THEORY>SGP4</MEAN_ELEMENT_THEORY></metadata><data><meanElements><EPOCH>2025-12-26T17:25:33.309408</EPOCH><MEAN_MOTION>14.79935665</MEAN_MOTION><ECCENTRICITY>.00059176</ECCENTRICITY><INCLINATION>51.8986</INCLINATION><RA_OF_ASC_NODE>138.2479</RA_OF_ASC_NODE><ARG_OF_PERICENTER>215.7245</ARG_OF_PERICENTER><MEAN_ANOMALY>144.3322</MEAN_ANOMALY></meanElements><tleParameters><EPHEMERIS_TYPE>0</EPHEMERIS_TYPE><CLASSIFICATION_TYPE>U</CLASSIFICATION_TYPE><NORAD_CAT_ID>65151</NORAD_CAT_ID><ELEMENT_SET_NO>999</ELEMENT_SET_NO><REV_AT_EPOCH>2183</REV_AT_EPOCH><BSTAR>-.28095647E-3</BSTAR><MEAN_MOTION_DOT>-.2364E-4</MEAN_MOTION_DOT><MEAN_MOTION_DDOT>0</MEAN_MOTION_DDOT></tleParameters></data></segment></body></omm>
<omm id="CCSDS_OMM_VERS" version="2.0">
<header><CREATION_DATE/><ORIGINATOR/></header><body><segment><metadata><OBJECT_NAME>KUIPER-00115</OBJECT_NAME><OBJECT_ID>2025-171W</OBJECT_ID><CENTER_NAME>EARTH</CENTER_NAME><REF_FRAME>TEME</REF_FRAME><TIME_SYSTEM>UTC</TIME_SYSTEM><MEAN_ELEMENT_THEORY>SGP4</MEAN_ELEMENT_THEORY></metadata><data><meanElements><EPOCH>2025-12-25T15:41:31.068384</EPOCH><MEAN_MOTION>14.79955005</MEAN_MOTION><ECCENTRICITY>.0009433</ECCENTRICITY><INCLINATION>51.9000</INCLINATION><RA_OF_ASC_NODE>135.4732</RA_OF_ASC_NODE><ARG_OF_PERICENTER>237.7696</ARG_OF_PERICENTER><MEAN_ANOMALY>122.2352</MEAN_ANOMALY></meanElements><tleParameters><EPHEMERIS_TYPE>0</EPHEMERIS_TYPE><CLASSIFICATION_TYPE>U</CLASSIFICATION_TYPE><NORAD_CAT_ID>65152</NORAD_CAT_ID><ELEMENT_SET_NO>999</ELEMENT_SET_NO><REV_AT_EPOCH>2178</REV_AT_EPOCH><BSTAR>.42069E-3</BSTAR><MEAN_MOTION_DOT>.2989E-4</MEAN_MOTION_DOT><MEAN_MOTION_DDOT>0</MEAN_MOTION_DDOT></tleParameters></data></segment></body></omm>
<omm id="CCSDS_OMM_VERS" version="2.0">
<header><CREATION_DATE/><ORIGINATOR/></header><body><segment><metadata><OBJECT_NAME>KUIPER-00116</OBJECT_NAME><OBJECT_ID>2025-171X</OBJECT_ID><CENTER_NAME>EARTH</CENTER_NAME><REF_FRAME>TEME</REF_FRAME><TIME_SYSTEM>UTC</TIME_SYSTEM><MEAN_ELEMENT_THEORY>SGP4</MEAN_ELEMENT_THEORY></metadata><data><meanElements><EPOCH>2025-12-27T02:24:31.463424</EPOCH><MEAN_MOTION>14.79945822</MEAN_MOTION><ECCENTRICITY>.0009679</ECCENTRICITY><INCLINATION>51.8987</INCLINATION><RA_OF_ASC_NODE>134.1193</RA_OF_ASC_NODE><ARG_OF_PERICENTER>207.7092</ARG_OF_PERICENTER><MEAN_ANOMALY>152.3356</MEAN_ANOMALY></meanElements><tleParameters><EPHEMERIS_TYPE>0</EPHEMERIS_TYPE><CLASSIFICATION_TYPE>U</CLASSIFICATION_TYPE><NORAD_CAT_ID>65153</NORAD_CAT_ID><ELEMENT_SET_NO>999</ELEMENT_SET_NO><REV_AT_EPOCH>2192</REV_AT_EPOCH><BSTAR>.64956E-3</BSTAR><MEAN_MOTION_DOT>.4737E-4</MEAN_MOTION_DOT><MEAN_MOTION_DDOT>0</MEAN_MOTION_DDOT></tleParameters></data></segment></body></omm>
<omm id="CCSDS_OMM_VERS" version="2.0">
<header><CREATION_DATE/><ORIGINATOR/></header><body><segment><metadata><OBJECT_NAME>KUIPER-00118</OBJECT_NAME><OBJECT_ID>2025-171Y</OBJECT_ID><CENTER_NAME>EARTH</CENTER_NAME><REF_FRAME>TEME</REF_FRAME><TIME_SYSTEM>UTC</TIME_SYSTEM><MEAN_ELEMENT_THEORY>SGP4</MEAN_ELEMENT_THEORY></metadata><data><meanElements><EPOCH>2025-12-27T02:20:41.940960</EPOCH><MEAN_MOTION>14.79954016</MEAN_MOTION><ECCENTRICITY>.0001202</ECCENTRICITY><INCLINATION>51.9008</INCLINATION><RA_OF_ASC_NODE>136.5870</RA_OF_ASC_NODE><ARG_OF_PERICENTER>187.6041</ARG_OF_PERICENTER><MEAN_ANOMALY>172.4904</MEAN_ANOMALY></meanElements><tleParameters><EPHEMERIS_TYPE>0</EPHEMERIS_TYPE><CLASSIFICATION_TYPE>U</CLASSIFICATION_TYPE><NORAD_CAT_ID>65154</NORAD_CAT_ID><ELEMENT_SET_NO>999</ELEMENT_SET_NO><REV_AT_EPOCH>2189</REV_AT_EPOCH><BSTAR>.72431E-3</BSTAR><MEAN_MOTION_DOT>.5308E-4</MEAN_MOTION_DOT><MEAN_MOTION_DDOT>0</MEAN_MOTION_DDOT></tleParameters></data></segment></body></omm>
<omm id="CCSDS_OMM_VERS" version="2.0">
<header><CREATION_DATE/><ORIGINATOR/></header><body><segment><metadata><OBJECT_NAME>KUIPER-00119</OBJECT_NAME><OBJECT_ID>2025-171Z</OBJECT_ID><CENTER_NAME>EARTH</CENTER_NAME><REF_FRAME>TEME</REF_FRAME><TIME_SYSTEM>UTC</TIME_SYSTEM><MEAN_ELEMENT_THEORY>SGP4</MEAN_ELEMENT_THEORY></metadata><data><meanElements><EPOCH>2025-12-26T15:19:18.166944</EPOCH><MEAN_MOTION>14.79964173</MEAN_MOTION><ECCENTRICITY>.0007974</ECCENTRICITY><INCLINATION>51.9005</INCLINATION><RA_OF_ASC_NODE>126.2010</RA_OF_ASC_NODE><ARG_OF_PERICENTER>237.2082</ARG_OF_PERICENTER><MEAN_ANOMALY>122.8112</MEAN_ANOMALY></meanElements><tleParameters><EPHEMERIS_TYPE>0</EPHEMERIS_TYPE><CLASSIFICATION_TYPE>U</CLASSIFICATION_TYPE><NORAD_CAT_ID>65155</NORAD_CAT_ID><ELEMENT_SET_NO>999</ELEMENT_SET_NO><REV_AT_EPOCH>2199</REV_AT_EPOCH><BSTAR>.71741E-3</BSTAR><MEAN_MOTION_DOT>.5257E-4</MEAN_MOTION_DOT><MEAN_MOTION_DDOT>0</MEAN_MOTION_DDOT></tleParameters></data></segment></body></omm>
<omm id="CCSDS_OMM_VERS" version="2.0">
<header><CREATION_DATE/><ORIGINATOR/></header><body><segment><metadata><OBJECT_NAME>KUIPER-00120</OBJECT_NAME><OBJECT_ID>2025-217A</OBJECT_ID><CENTER_NAME>EARTH</CENTER_NAME><REF_FRAME>TEME</REF_FRAME><TIME_SYSTEM>UTC</TIME_SYSTEM><MEAN_ELEMENT_THEORY>SGP4</MEAN_ELEMENT_THEORY></metadata><data><meanElements><EPOCH>2025-12-27T00:39:32.063616</EPOCH><MEAN_MOTION>14.78360450</MEAN_MOTION><ECCENTRICITY>.0003396</ECCENTRICITY><INCLINATION>51.9003</INCLINATION><RA_OF_ASC_NODE>13.1770</RA_OF_ASC_NODE><ARG_OF_PERICENTER>59.8167</ARG_OF_PERICENTER><MEAN_ANOMALY>300.3131</MEAN_ANOMALY></meanElements><tleParameters><EPHEMERIS_TYPE>0</EPHEMERIS_TYPE><CLASSIFICATION_TYPE>U</CLASSIFICATION_TYPE><NORAD_CAT_ID>65762</NORAD_CAT_ID><ELEMENT_SET_NO>999</ELEMENT_SET_NO><REV_AT_EPOCH>1399</REV_AT_EPOCH><BSTAR>.66376E-3</BSTAR><MEAN_MOTION_DOT>.466E-4</MEAN_MOTION_DOT><MEAN_MOTION_DDOT>0</MEAN_MOTION_DDOT></tleParameters></data></segment></body></omm>
<omm id="CCSDS_OMM_VERS" version="2.0">
<header><CREATION_DATE/><ORIGINATOR/></header><body><segment><metadata><OBJECT_NAME>KUIPER-00132</OBJECT_NAME><OBJECT_ID>2025-217B</OBJECT_ID><CENTER_NAME>EARTH</CENTER_NAME><REF_FRAME>TEME</REF_FRAME><TIME_SYSTEM>UTC</TIME_SYSTEM><MEAN_ELEMENT_THEORY>SGP4</MEAN_ELEMENT_THEORY></metadata><data><meanElements><EPOCH>2025-12-27T00:02:23.093088</EPOCH><MEAN_MOTION>15.37786163</MEAN_MOTION><ECCENTRICITY>.0007701</ECCENTRICITY><INCLINATION>51.8631</INCLINATION><RA_OF_ASC_NODE>355.7453</RA_OF_ASC_NODE><ARG_OF_PERICENTER>62.4093</ARG_OF_PERICENTER><MEAN_ANOMALY>297.7675</MEAN_ANOMALY></meanElements><tleParameters><EPHEMERIS_TYPE>0</EPHEMERIS_TYPE><CLASSIFICATION_TYPE>U</CLASSIFICATION_TYPE><NORAD_CAT_ID>65763</NORAD_CAT_ID><ELEMENT_SET_NO>999</ELEMENT_SET_NO><REV_AT_EPOCH>1423</REV_AT_EPOCH><BSTAR>.12082E-2</BSTAR><MEAN_MOTION_DOT>.45476E-3</MEAN_MOTION_DOT><MEAN_MOTION_DDOT>0</MEAN_MOTION_DDOT></tleParameters></data></segment></body></omm>

</ndm>
